{
  "type": "FeatureCollection",
  "generator": "overpass-turbo",
  "copyright": "The data included in this document is from www.openstreetmap.org. The data is made available under ODbL.",
  "timestamp": "2026-05-10T16:00:00Z",
  "features": [
    {
      "type": "Feature",
      "properties": {
        "@id": "relation/17606330",
        "admin_level": "6",
        "boundary": "administrative",
        "name": "Xã Công Hải",
        "type": "boundary",
        "wikidata": "Q11840124"
      },
      "geometry": {
        "type": "Polygon",
        "coordinates": [
          [
            [
              108.9903617,
              11.7862248
            ],
            [
              108.9913916,
              11.7871858
            ],
            [
              108.9920354,
              11.7880103
            ],
            [
              108.9927435,
              11.7885301
            ],
            [
              108.9942884,
              11.7903156
            ],
            [
              108.9951038,
              11.7907462
            ],
            [
              108.9957046,
              11.7911348
            ],
            [
              108.995899,
              11.7911926
            ],
            [
              108.9960905,
              11.7912592
            ],
            [
              108.9962786,
              11.7913343
            ],
            [
              108.9965656,
              11.7914688
            ],
            [
              108.9968419,
              11.7916231
            ],
            [
              108.9972389,
              11.7919855
            ],
            [
              108.9979953,
              11.7930777
            ],
            [
              108.9981809,
              11.793301
            ],
            [
              108.998284,
              11.7934037
            ],
            [
              108.9985088,
              11.7935893
            ],
            [
              108.9987554,
              11.7937461
            ],
            [
              108.9990072,
              11.7938664
            ],
            [
              108.9992584,
              11.7939529
            ],
            [
              108.9993873,
              11.7939856
            ],
            [
              108.9996498,
              11.7940294
            ],
            [
              108.9999157,
              11.7940439
            ],
            [
              109.0000755,
              11.7940399
            ],
            [
              109.0002348,
              11.7940267
            ],
            [
              109.000393,
              11.7940044
            ],
            [
              109.0005496,
              11.7939731
            ],
            [
              109.0007041,
              11.7939329
            ],
            [
              109.0008559,
              11.7938839
            ],
            [
              109.0010046,
              11.7938263
            ],
            [
              109.0011495,
              11.7937604
            ],
            [
              109.0013388,
              11.7936432
            ],
            [
              109.0014262,
              11.7935746
            ],
            [
              109.0016971,
              11.793308
            ],
            [
              109.0018321,
              11.7932239
            ],
            [
              109.0019712,
              11.7931735
            ],
            [
              109.0021059,
              11.7931524
            ],
            [
              109.0021741,
              11.7931512
            ],
            [
              109.0022531,
              11.793191
            ],
            [
              109.0023164,
              11.7932541
            ],
            [
              109.0023907,
              11.793405
            ],
            [
              109.0024316,
              11.7934715
            ],
            [
              109.0034938,
              11.7931643
            ],
            [
              109.0036793,
              11.7931224
            ],
            [
              109.003774,
              11.7931122
            ],
            [
              109.0039577,
              11.793113
            ],
            [
              109.0041325,
              11.7931393
            ],
            [
              109.0043147,
              11.7931934
            ],
            [
              109.0044165,
              11.7932011
            ],
            [
              109.004474,
              11.7931947
            ],
            [
              109.0045837,
              11.7931589
            ],
            [
              109.0050575,
              11.7928703
            ],
            [
              109.005219,
              11.7928188
            ],
            [
              109.0053027,
              11.792804
            ],
            [
              109.0054684,
              11.7927969
            ],
            [
              109.0056288,
              11.7928178
            ],
            [
              109.0059185,
              11.7928939
            ],
            [
              109.0061438,
              11.7932667
            ],
            [
              109.0062865,
              11.7933978
            ],
            [
              109.0063664,
              11.7934532
            ],
            [
              109.0065256,
              11.7935354
            ],
            [
              109.0066099,
              11.7935665
            ],
            [
              109.006785,
              11.7936072
            ],
            [
              109.0075493,
              11.7936606
            ],
            [
              109.0076262,
              11.793685
            ],
            [
              109.0077704,
              11.7937562
            ],
            [
              109.0078968,
              11.7938545
            ],
            [
              109.0079516,
              11.7939126
            ],
            [
              109.0080362,
              11.7940338
            ],
            [
              109.008096,
              11.7941685
            ],
            [
              109.0081367,
              11.7943503
            ],
            [
              109.0081729,
              11.7944202
            ],
            [
              109.0082319,
              11.7944732
            ],
            [
              109.0082666,
              11.7944907
            ],
            [
              109.0083426,
              11.7945069
            ],
            [
              109.0084197,
              11.7944968
            ],
            [
              109.0085055,
              11.7944666
            ],
            [
              109.0085761,
              11.794414
            ],
            [
              109.0086528,
              11.7943091
            ],
            [
              109.0086829,
              11.7942792
            ],
            [
              109.0087589,
              11.7942326
            ],
            [
              109.0088034,
              11.7942183
            ],
            [
              109.0088966,
              11.7942118
            ],
            [
              109.0094775,
              11.7943167
            ],
            [
              109.0095882,
              11.794316
            ],
            [
              109.0097058,
              11.7942873
            ],
            [
              109.009821,
              11.7942249
            ],
            [
              109.0098712,
              11.7941828
            ],
            [
              109.0103736,
              11.7936501
            ],
            [
              109.0104274,
              11.7936042
            ],
            [
              109.0104867,
              11.7935655
            ],
            [
              109.0105507,
              11.7935346
            ],
            [
              109.0106617,
              11.7935022
            ],
            [
              109.0107192,
              11.7934948
            ],
            [
              109.0110033,
              11.7935006
            ],
            [
              109.0111851,
              11.7934749
            ],
            [
              109.011281,
              11.7934485
            ],
            [
              109.0116082,
              11.7933309
            ],
            [
              109.0117282,
              11.7932983
            ],
            [
              109.0118812,
              11.7932658
            ],
            [
              109.0122426,
              11.7932222
            ],
            [
              109.0123363,
              11.7931836
            ],
            [
              109.0123773,
              11.7931538
            ],
            [
              109.0124424,
              11.7930766
            ],
            [
              109.0124647,
              11.7930314
            ],
            [
              109.0124847,
              11.7929546
            ],
            [
              109.0124819,
              11.7928965
            ],
            [
              109.0124534,
              11.7928298
            ],
            [
              109.01243,
              11.7928016
            ],
            [
              109.0122351,
              11.7926629
            ],
            [
              109.0122111,
              11.7926343
            ],
            [
              109.0121841,
              11.7925657
            ],
            [
              109.0121876,
              11.7924962
            ],
            [
              109.0121999,
              11.7924634
            ],
            [
              109.0122431,
              11.7924082
            ],
            [
              109.0124953,
              11.7921771
            ],
            [
              109.0125415,
              11.7921444
            ],
            [
              109.0126428,
              11.7920931
            ],
            [
              109.0127075,
              11.7920722
            ],
            [
              109.01283,
              11.7920504
            ],
            [
              109.0129345,
              11.7920092
            ],
            [
              109.0130177,
              11.7919437
            ],
            [
              109.0130759,
              11.7918629
            ],
            [
              109.0131115,
              11.7917635
            ],
            [
              109.0131187,
              11.791708
            ],
            [
              109.0131095,
              11.7913816
            ],
            [
              109.0131217,
              11.7912703
            ],
            [
              109.0131556,
              11.7911658
            ],
            [
              109.0132087,
              11.7910717
            ],
            [
              109.0132375,
              11.7909847
            ],
            [
              109.013235,
              11.7906113
            ],
            [
              109.01325,
              11.7904321
            ],
            [
              109.013268,
              11.7903667
            ],
            [
              109.0132948,
              11.7903041
            ],
            [
              109.0133298,
              11.7902456
            ],
            [
              109.0134199,
              11.7901463
            ],
            [
              109.0135308,
              11.7900743
            ],
            [
              109.0136567,
              11.790032
            ],
            [
              109.0137566,
              11.790027
            ],
            [
              109.0138546,
              11.790047
            ],
            [
              109.0140036,
              11.7901096
            ],
            [
              109.014109,
              11.7901192
            ],
            [
              109.0142065,
              11.7900993
            ],
            [
              109.0143603,
              11.7900294
            ],
            [
              109.0144774,
              11.7900057
            ],
            [
              109.0146091,
              11.7900114
            ],
            [
              109.0147334,
              11.7900381
            ],
            [
              109.0147944,
              11.7900425
            ],
            [
              109.0149212,
              11.7900292
            ],
            [
              109.0149848,
              11.7900106
            ],
            [
              109.0151595,
              11.7899277
            ],
            [
              109.0152194,
              11.7899135
            ],
            [
              109.0152809,
              11.7899081
            ],
            [
              109.0153425,
              11.7899118
            ],
            [
              109.0155792,
              11.7899517
            ],
            [
              109.0157578,
              11.7899605
            ],
            [
              109.0159366,
              11.7899506
            ],
            [
              109.0160656,
              11.7899193
            ],
            [
              109.016186,
              11.789864
            ],
            [
              109.0163058,
              11.789775
            ],
            [
              109.0164026,
              11.7896623
            ],
            [
              109.0166205,
              11.7892995
            ],
            [
              109.0166587,
              11.7892531
            ],
            [
              109.0167466,
              11.7891708
            ],
            [
              109.0168012,
              11.7891319
            ],
            [
              109.0169205,
              11.7890701
            ],
            [
              109.0170497,
              11.7890316
            ],
            [
              109.0176128,
              11.7889102
            ],
            [
              109.0178198,
              11.788842
            ],
            [
              109.0180393,
              11.7887385
            ],
            [
              109.0181525,
              11.7887029
            ],
            [
              109.0182815,
              11.7886881
            ],
            [
              109.018352,
              11.7886909
            ],
            [
              109.0184218,
              11.7887013
            ],
            [
              109.0185423,
              11.7887319
            ],
            [
              109.018596,
              11.7887366
            ],
            [
              109.0187025,
              11.7887223
            ],
            [
              109.0187975,
              11.7886788
            ],
            [
              109.0188737,
              11.7886121
            ],
            [
              109.0189274,
              11.788527
            ],
            [
              109.0189443,
              11.7884796
            ],
            [
              109.018987,
              11.7882816
            ],
            [
              109.019052,
              11.7881277
            ],
            [
              109.0190994,
              11.78805
            ],
            [
              109.0191847,
              11.787943
            ],
            [
              109.0192814,
              11.7878549
            ],
            [
              109.0194263,
              11.7877647
            ],
            [
              109.0195051,
              11.7877311
            ],
            [
              109.0197252,
              11.7876609
            ],
            [
              109.0200074,
              11.7875912
            ],
            [
              109.0202951,
              11.7875482
            ],
            [
              109.020609,
              11.7875322
            ],
            [
              109.0209228,
              11.7875482
            ],
            [
              109.021132,
              11.7875842
            ],
            [
              109.0214077,
              11.7876635
            ],
            [
              109.0215559,
              11.7876846
            ],
            [
              109.0217087,
              11.7876773
            ],
            [
              109.0217853,
              11.7876624
            ],
            [
              109.0219322,
              11.7876107
            ],
            [
              109.0221112,
              11.7875079
            ],
            [
              109.0222161,
              11.7874339
            ],
            [
              109.0223153,
              11.7873526
            ],
            [
              109.0224083,
              11.7872645
            ],
            [
              109.0224945,
              11.7871701
            ],
            [
              109.022626,
              11.7870666
            ],
            [
              109.0227747,
              11.7869886
            ],
            [
              109.0229157,
              11.7869362
            ],
            [
              109.022975,
              11.7869071
            ],
            [
              109.0230846,
              11.786834
            ],
            [
              109.0231906,
              11.7867297
            ],
            [
              109.0232351,
              11.7866703
            ],
            [
              109.0233651,
              11.7863769
            ],
            [
              109.0234338,
              11.7862767
            ],
            [
              109.0235104,
              11.7861821
            ],
            [
              109.0235943,
              11.7860935
            ],
            [
              109.0237672,
              11.7859477
            ],
            [
              109.0239599,
              11.7858278
            ],
            [
              109.0240624,
              11.7857784
            ],
            [
              109.0243071,
              11.7856817
            ],
            [
              109.0244423,
              11.7856186
            ],
            [
              109.0245732,
              11.7855475
            ],
            [
              109.0248179,
              11.7853841
            ],
            [
              109.0250382,
              11.7851947
            ],
            [
              109.0251392,
              11.7850905
            ],
            [
              109.0253966,
              11.7849566
            ],
            [
              109.0256692,
              11.7848553
            ],
            [
              109.0259524,
              11.7847883
            ],
            [
              109.0262418,
              11.7847566
            ],
            [
              109.0263874,
              11.7847541
            ],
            [
              109.0266778,
              11.7847759
            ],
            [
              109.0268214,
              11.7848002
            ],
            [
              109.0272061,
              11.7848922
            ],
            [
              109.02733,
              11.7849101
            ],
            [
              109.02758,
              11.7849225
            ],
            [
              109.0277171,
              11.7849159
            ],
            [
              109.0278534,
              11.7848999
            ],
            [
              109.0279881,
              11.7848746
            ],
            [
              109.0281208,
              11.7848401
            ],
            [
              109.0283567,
              11.7847543
            ],
            [
              109.0285766,
              11.784692
            ],
            [
              109.0288031,
              11.7846599
            ],
            [
              109.028928,
              11.7846555
            ],
            [
              109.0290528,
              11.7846602
            ],
            [
              109.029177,
              11.7846742
            ],
            [
              109.0292997,
              11.7846972
            ],
            [
              109.0294203,
              11.7847293
            ],
            [
              109.0308899,
              11.7852323
            ],
            [
              109.0310005,
              11.7852629
            ],
            [
              109.0311133,
              11.7852846
            ],
            [
              109.0312275,
              11.7852971
            ],
            [
              109.0313424,
              11.7853005
            ],
            [
              109.0314572,
              11.7852946
            ],
            [
              109.0315711,
              11.7852796
            ],
            [
              109.0317861,
              11.7852249
            ],
            [
              109.0318896,
              11.7851853
            ],
            [
              109.0319896,
              11.7851378
            ],
            [
              109.0320541,
              11.785096
            ],
            [
              109.0321675,
              11.7849929
            ],
            [
              109.0322149,
              11.784933
            ],
            [
              109.0323128,
              11.784853
            ],
            [
              109.0324289,
              11.7848015
            ],
            [
              109.0325549,
              11.7847822
            ],
            [
              109.0326187,
              11.7847851
            ],
            [
              109.0328853,
              11.7848388
            ],
            [
              109.0332878,
              11.7849435
            ],
            [
              109.033507,
              11.7850126
            ],
            [
              109.0340047,
              11.7852
            ],
            [
              109.0340746,
              11.7852193
            ],
            [
              109.0342318,
              11.7852395
            ],
            [
              109.034454,
              11.7852397
            ],
            [
              109.0345901,
              11.7852482
            ],
            [
              109.0347256,
              11.7852629
            ],
            [
              109.0349936,
              11.7853111
            ],
            [
              109.0363347,
              11.7852848
            ],
            [
              109.0364399,
              11.7852767
            ],
            [
              109.0366467,
              11.7852361
            ],
            [
              109.0368444,
              11.7851641
            ],
            [
              109.0370127,
              11.7850723
            ],
            [
              109.0370914,
              11.7850177
            ],
            [
              109.0372356,
              11.7848926
            ],
            [
              109.0373003,
              11.7848227
            ],
            [
              109.037987,
              11.7838985
            ],
            [
              109.0381419,
              11.7837731
            ],
            [
              109.038226,
              11.7837193
            ],
            [
              109.0384054,
              11.7836307
            ],
            [
              109.0385896,
              11.7835708
            ],
            [
              109.0386845,
              11.7835507
            ],
            [
              109.0388775,
              11.7835309
            ],
            [
              109.0393603,
              11.7835151
            ],
            [
              109.0394271,
              11.7835047
            ],
            [
              109.0395542,
              11.7834597
            ],
            [
              109.0396124,
              11.7834259
            ],
            [
              109.0397069,
              11.7833453
            ],
            [
              109.0397798,
              11.7832454
            ],
            [
              109.0398749,
              11.7830172
            ],
            [
              109.0399879,
              11.7827957
            ],
            [
              109.0400692,
              11.7826643
            ],
            [
              109.0401588,
              11.7825381
            ],
            [
              109.0402561,
              11.7824176
            ],
            [
              109.0402967,
              11.7823488
            ],
            [
              109.040356,
              11.782201
            ],
            [
              109.0405029,
              11.7815038
            ],
            [
              109.0405837,
              11.7813587
            ],
            [
              109.0406342,
              11.7812923
            ],
            [
              109.0407589,
              11.7811697
            ],
            [
              109.0408331,
              11.7811157
            ],
            [
              109.0409126,
              11.7810694
            ],
            [
              109.0409964,
              11.7810312
            ],
            [
              109.0415114,
              11.7808947
            ],
            [
              109.0420639,
              11.7807792
            ],
            [
              109.0423243,
              11.7806956
            ],
            [
              109.0424502,
              11.7806426
            ],
            [
              109.0435713,
              11.780065
            ],
            [
              109.0436349,
              11.7800156
            ],
            [
              109.0437454,
              11.7798995
            ],
            [
              109.0437913,
              11.7798339
            ],
            [
              109.0438642,
              11.7796847
            ],
            [
              109.0438883,
              11.7796054
            ],
            [
              109.0439194,
              11.7793581
            ],
            [
              109.0439678,
              11.7791556
            ],
            [
              109.0440464,
              11.778942
            ],
            [
              109.0441,
              11.7788304
            ],
            [
              109.0442289,
              11.7786189
            ],
            [
              109.0443038,
              11.7785199
            ],
            [
              109.0444726,
              11.7783372
            ],
            [
              109.0450519,
              11.7779171
            ],
            [
              109.0451458,
              11.777832
            ],
            [
              109.0452336,
              11.7777409
            ],
            [
              109.0453837,
              11.7775499
            ],
            [
              109.0455445,
              11.7772792
            ],
            [
              109.0455929,
              11.7772125
            ],
            [
              109.0456474,
              11.7771504
            ],
            [
              109.0457604,
              11.7770512
            ],
            [
              109.0458888,
              11.7769718
            ],
            [
              109.0474333,
              11.7762617
            ],
            [
              109.0477341,
              11.7760948
            ],
            [
              109.0478849,
              11.7759992
            ],
            [
              109.048174,
              11.7757903
            ],
            [
              109.0483403,
              11.7757081
            ],
            [
              109.0484277,
              11.7756764
            ],
            [
              109.0486085,
              11.7756327
            ],
            [
              109.048702,
              11.7756209
            ],
            [
              109.0487961,
              11.7756161
            ],
            [
              109.048984,
              11.7756275
            ],
            [
              109.0490531,
              11.7756448
            ],
            [
              109.0491194,
              11.7756708
            ],
            [
              109.0491816,
              11.775705
            ],
            [
              109.0492387,
              11.7757468
            ],
            [
              109.0492898,
              11.7757955
            ],
            [
              109.0493514,
              11.7758713
            ],
            [
              109.0493898,
              11.775902
            ],
            [
              109.0494779,
              11.7759459
            ],
            [
              109.0495259,
              11.7759583
            ],
            [
              109.0496245,
              11.7759626
            ],
            [
              109.0497203,
              11.7759395
            ],
            [
              109.0497648,
              11.7759183
            ],
            [
              109.0498424,
              11.7758585
            ],
            [
              109.0499676,
              11.7757207
            ],
            [
              109.050021,
              11.7756446
            ],
            [
              109.0501192,
              11.7754142
            ],
            [
              109.0502447,
              11.7752546
            ],
            [
              109.0503213,
              11.7751803
            ],
            [
              109.0504045,
              11.7751131
            ],
            [
              109.0506584,
              11.7749547
            ],
            [
              109.0507847,
              11.7748417
            ],
            [
              109.0508884,
              11.7747084
            ],
            [
              109.0511191,
              11.7743303
            ],
            [
              109.0512425,
              11.7742109
            ],
            [
              109.0513819,
              11.7741098
            ],
            [
              109.0514765,
              11.7740565
            ],
            [
              109.0515756,
              11.7740117
            ],
            [
              109.0516783,
              11.7739757
            ],
            [
              109.0517839,
              11.7739488
            ],
            [
              109.0518916,
              11.7739312
            ],
            [
              109.0520894,
              11.7739238
            ],
            [
              109.0521871,
              11.7739079
            ],
            [
              109.052375,
              11.7738529
            ],
            [
              109.0525492,
              11.773769
            ],
            [
              109.053297,
              11.7732538
            ],
            [
              109.0533598,
              11.7732017
            ],
            [
              109.0534677,
              11.7730803
            ],
            [
              109.0535437,
              11.7729501
            ],
            [
              109.0535907,
              11.7728187
            ],
            [
              109.0536135,
              11.7726813
            ],
            [
              109.053664,
              11.7725304
            ],
            [
              109.053739,
              11.7723896
            ],
            [
              109.0537852,
              11.7723242
            ],
            [
              109.0541768,
              11.7718673
            ],
            [
              109.0542984,
              11.7717548
            ],
            [
              109.0543646,
              11.7717045
            ],
            [
              109.0544945,
              11.7716236
            ],
            [
              109.0547937,
              11.771484
            ],
            [
              109.0749907,
              11.7619942
            ],
            [
              109.075208,
              11.7621937
            ],
            [
              109.0754548,
              11.7621018
            ],
            [
              109.0758866,
              11.7624379
            ],
            [
              109.0759563,
              11.7626664
            ],
            [
              109.0759816,
              11.7627792
            ],
            [
              109.0760153,
              11.7630078
            ],
            [
              109.0766638,
              11.7629933
            ],
            [
              109.0861756,
              11.7688582
            ],
            [
              109.1055679,
              11.7634594
            ],
            [
              109.1103852,
              11.7548464
            ],
            [
              109.1134,
              11.7483445
            ],
            [
              109.1216236,
              11.7353086
            ],
            [
              109.1257176,
              11.7285344
            ],
            [
              109.1257703,
              11.7291003
            ],
            [
              109.1267466,
              11.7309282
            ],
            [
              109.1282037,
              11.7325779
            ],
            [
              109.1283136,
              11.7326823
            ],
            [
              109.1283774,
              11.7327297
            ],
            [
              109.1291875,
              11.7328925
            ],
            [
              109.1298044,
              11.732903
            ],
            [
              109.1299547,
              11.7329548
            ],
            [
              109.1301017,
              11.733015
            ],
            [
              109.1302449,
              11.7330835
            ],
            [
              109.1303838,
              11.7331601
            ],
            [
              109.1305178,
              11.7332444
            ],
            [
              109.1307476,
              11.7334167
            ],
            [
              109.1308552,
              11.7335115
            ],
            [
              109.1310543,
              11.7337171
            ],
            [
              109.1316819,
              11.7347413
            ],
            [
              109.1320145,
              11.7357183
            ],
            [
              109.1320787,
              11.7358378
            ],
            [
              109.1321504,
              11.7359533
            ],
            [
              109.1323149,
              11.73617
            ],
            [
              109.132468,
              11.7363302
            ],
            [
              109.1326368,
              11.7364746
            ],
            [
              109.1340208,
              11.7385545
            ],
            [
              109.1343748,
              11.7395944
            ],
            [
              109.1344857,
              11.739841
            ],
            [
              109.1345502,
              11.7399599
            ],
            [
              109.1346967,
              11.7401879
            ],
            [
              109.134779,
              11.7402972
            ],
            [
              109.1349596,
              11.7405031
            ],
            [
              109.135117,
              11.7406054
            ],
            [
              109.1352012,
              11.7406477
            ],
            [
              109.135378,
              11.7407131
            ],
            [
              109.1355538,
              11.7407507
            ],
            [
              109.1356433,
              11.7407602
            ],
            [
              109.1358232,
              11.7407604
            ],
            [
              109.1369551,
              11.7412068
            ],
            [
              109.1373092,
              11.7414274
            ],
            [
              109.1374887,
              11.7414737
            ],
            [
              109.137674,
              11.7414852
            ],
            [
              109.1377679,
              11.7414775
            ],
            [
              109.1378606,
              11.7414609
            ],
            [
              109.1379512,
              11.7414353
            ],
            [
              109.1389641,
              11.7410073
            ],
            [
              109.1390496,
              11.7409912
            ],
            [
              109.1392231,
              11.7409781
            ],
            [
              109.1394051,
              11.7409915
            ],
            [
              109.1394988,
              11.7410095
            ],
            [
              109.1396803,
              11.7410677
            ],
            [
              109.1398841,
              11.7415272
            ],
            [
              109.1403884,
              11.7421575
            ],
            [
              109.141767,
              11.7446995
            ],
            [
              109.1420057,
              11.7455162
            ],
            [
              109.1424644,
              11.7462647
            ],
            [
              109.1428077,
              11.7468529
            ],
            [
              109.1428168,
              11.7469962
            ],
            [
              109.1428024,
              11.7471391
            ],
            [
              109.1427694,
              11.7472648
            ],
            [
              109.1427057,
              11.7474454
            ],
            [
              109.1426713,
              11.7475669
            ],
            [
              109.14262,
              11.747814
            ],
            [
              109.142591,
              11.7480936
            ],
            [
              109.1425805,
              11.7485217
            ],
            [
              109.1425495,
              11.7487812
            ],
            [
              109.1425019,
              11.7490115
            ],
            [
              109.1423088,
              11.7498098
            ],
            [
              109.1433012,
              11.7508549
            ],
            [
              109.1433557,
              11.7509437
            ],
            [
              109.1434407,
              11.7511333
            ],
            [
              109.1434719,
              11.751238
            ],
            [
              109.1434934,
              11.7513451
            ],
            [
              109.1438055,
              11.7539431
            ],
            [
              109.1441917,
              11.7542372
            ],
            [
              109.1458386,
              11.7563747
            ],
            [
              109.1465253,
              11.7570049
            ],
            [
              109.1466479,
              11.7571747
            ],
            [
              109.1467398,
              11.7573621
            ],
            [
              109.1467736,
              11.7574614
            ],
            [
              109.1468149,
              11.7576667
            ],
            [
              109.1466647,
              11.7582496
            ],
            [
              109.1466385,
              11.7584563
            ],
            [
              109.1466379,
              11.7586645
            ],
            [
              109.14665,
              11.7587903
            ],
            [
              109.1466715,
              11.7589148
            ],
            [
              109.1467023,
              11.7590374
            ],
            [
              109.1475606,
              11.7607443
            ],
            [
              109.1476656,
              11.7608814
            ],
            [
              109.147778,
              11.7610128
            ],
            [
              109.1478975,
              11.7611382
            ],
            [
              109.1480236,
              11.7612571
            ],
            [
              109.148156,
              11.7613692
            ],
            [
              109.1484196,
              11.7615597
            ],
            [
              109.1485583,
              11.761645
            ],
            [
              109.1488481,
              11.7617946
            ],
            [
              109.1504627,
              11.7622988
            ],
            [
              109.151085,
              11.7626139
            ],
            [
              109.1522223,
              11.7630025
            ],
            [
              109.1534561,
              11.7638743
            ],
            [
              109.1540247,
              11.7642367
            ],
            [
              109.1541011,
              11.7643025
            ],
            [
              109.1541709,
              11.7643749
            ],
            [
              109.1542337,
              11.7644533
            ],
            [
              109.1542888,
              11.764537
            ],
            [
              109.1543359,
              11.7646253
            ],
            [
              109.1543925,
              11.7647717
            ],
            [
              109.1544537,
              11.7650385
            ],
            [
              109.1545021,
              11.7651452
            ],
            [
              109.1545399,
              11.7652028
            ],
            [
              109.1546341,
              11.7653038
            ],
            [
              109.1549075,
              11.7654894
            ],
            [
              109.155044,
              11.7656231
            ],
            [
              109.1550931,
              11.7656854
            ],
            [
              109.1551764,
              11.7658196
            ],
            [
              109.1552854,
              11.7660511
            ],
            [
              109.15531,
              11.7660844
            ],
            [
              109.1553712,
              11.7661404
            ],
            [
              109.155414,
              11.766166
            ],
            [
              109.155509,
              11.7661965
            ],
            [
              109.1556909,
              11.7662199
            ],
            [
              109.1559694,
              11.7662825
            ],
            [
              109.1561146,
              11.7663278
            ],
            [
              109.1563958,
              11.7664424
            ],
            [
              109.1564805,
              11.7664676
            ],
            [
              109.1565676,
              11.7664835
            ],
            [
              109.156656,
              11.7664897
            ],
            [
              109.1568046,
              11.7664782
            ],
            [
              109.1568774,
              11.7664623
            ],
            [
              109.1570148,
              11.7664162
            ],
            [
              109.1571532,
              11.7663892
            ],
            [
              109.1572943,
              11.7663899
            ],
            [
              109.1573608,
              11.7663999
            ],
            [
              109.1574894,
              11.7664384
            ],
            [
              109.1576081,
              11.7665002
            ],
            [
              109.1584691,
              11.7671881
            ],
            [
              109.1591227,
              11.7671811
            ],
            [
              109.159652,
              11.7676687
            ],
            [
              109.1603842,
              11.7679785
            ],
            [
              109.160639,
              11.7682726
            ],
            [
              109.1609098,
              11.7683573
            ],
            [
              109.1610405,
              11.7684121
            ],
            [
              109.1612887,
              11.7685444
            ],
            [
              109.1615168,
              11.7687051
            ],
            [
              109.1618164,
              11.768973
            ],
            [
              109.1620168,
              11.7691185
            ],
            [
              109.1622323,
              11.7692415
            ],
            [
              109.162838,
              11.7695039
            ],
            [
              109.1630371,
              11.76966
            ],
            [
              109.1632525,
              11.7697939
            ],
            [
              109.1634971,
              11.7699103
            ],
            [
              109.1636322,
              11.7699606
            ],
            [
              109.1637702,
              11.7700025
            ],
            [
              109.164205,
              11.7700942
            ],
            [
              109.1643554,
              11.7701341
            ],
            [
              109.1646501,
              11.7702336
            ],
            [
              109.1647937,
              11.7702929
            ],
            [
              109.1649253,
              11.7703571
            ],
            [
              109.1649952,
              11.77038
            ],
            [
              109.1651523,
              11.7704071
            ],
            [
              109.1653302,
              11.7704051
            ],
            [
              109.1655255,
              11.7704207
            ],
            [
              109.1657156,
              11.7704673
            ],
            [
              109.1658917,
              11.7705415
            ],
            [
              109.1659728,
              11.7705876
            ],
            [
              109.1661229,
              11.7706977
            ],
            [
              109.1661909,
              11.7707609
            ],
            [
              109.1663108,
              11.7709021
            ],
            [
              109.166398,
              11.7709729
            ],
            [
              109.1665059,
              11.7710256
            ],
            [
              109.1666308,
              11.7710529
            ],
            [
              109.1667249,
              11.7710923
            ],
            [
              109.1671573,
              11.7714331
            ],
            [
              109.1675257,
              11.7716911
            ],
            [
              109.167984,
              11.7719761
            ],
            [
              109.1684591,
              11.7722336
            ],
            [
              109.1685803,
              11.7723105
            ],
            [
              109.1688079,
              11.7724844
            ],
            [
              109.1691381,
              11.7728019
            ],
            [
              109.169268,
              11.7729153
            ],
            [
              109.1703051,
              11.7736869
            ],
            [
              109.1703812,
              11.773822
            ],
            [
              109.1705533,
              11.7740805
            ],
            [
              109.1707628,
              11.7743349
            ],
            [
              109.170884,
              11.7744603
            ],
            [
              109.1710121,
              11.7745789
            ],
            [
              109.1711466,
              11.7746905
            ],
            [
              109.1713731,
              11.7749135
            ],
            [
              109.171493,
              11.775018
            ],
            [
              109.1717452,
              11.7752127
            ],
            [
              109.1720636,
              11.7754168
            ],
            [
              109.1722299,
              11.7755075
            ],
            [
              109.1725748,
              11.7756652
            ],
            [
              109.1730964,
              11.775671
            ],
            [
              109.1741927,
              11.7765586
            ],
            [
              109.1746431,
              11.7767791
            ],
            [
              109.1747274,
              11.776847
            ],
            [
              109.1748802,
              11.7769996
            ],
            [
              109.1749404,
              11.7770735
            ],
            [
              109.1750461,
              11.7772316
            ],
            [
              109.1750958,
              11.7772919
            ],
            [
              109.1751525,
              11.777346
            ],
            [
              109.1752153,
              11.7773931
            ],
            [
              109.1752833,
              11.7774327
            ],
            [
              109.1753557,
              11.7774641
            ],
            [
              109.1754313,
              11.7774869
            ],
            [
              109.1754911,
              11.7774893
            ],
            [
              109.1756076,
              11.7775156
            ],
            [
              109.1757205,
              11.7775735
            ],
            [
              109.1757732,
              11.7776155
            ],
            [
              109.1758193,
              11.7776643
            ],
            [
              109.175858,
              11.7777189
            ],
            [
              109.1759245,
              11.7778593
            ],
            [
              109.1760244,
              11.7781271
            ],
            [
              109.1760891,
              11.7783803
            ],
            [
              109.1762551,
              11.7784325
            ],
            [
              109.1763439,
              11.7786124
            ],
            [
              109.1764388,
              11.7788676
            ],
            [
              109.176534,
              11.7789885
            ],
            [
              109.1766521,
              11.7790881
            ],
            [
              109.176775,
              11.7791567
            ],
            [
              109.1768407,
              11.7791824
            ],
            [
              109.1769781,
              11.7792157
            ],
            [
              109.1772232,
              11.779243
            ],
            [
              109.1774699,
              11.7792389
            ],
            [
              109.1778077,
              11.7793782
            ],
            [
              109.1788033,
              11.7793898
            ],
            [
              109.1790641,
              11.7797146
            ],
            [
              109.1790878,
              11.7797793
            ],
            [
              109.1791027,
              11.7798464
            ],
            [
              109.1791064,
              11.7799724
            ],
            [
              109.1790827,
              11.7800853
            ],
            [
              109.1790345,
              11.7801904
            ],
            [
              109.1790189,
              11.7802861
            ],
            [
              109.1790345,
              11.7803818
            ],
            [
              109.179055,
              11.7804293
            ],
            [
              109.1790834,
              11.7804727
            ],
            [
              109.1791601,
              11.7805428
            ],
            [
              109.1799116,
              11.7809329
            ],
            [
              109.1799293,
              11.7811302
            ],
            [
              109.1801205,
              11.7812009
            ],
            [
              109.18051,
              11.7813181
            ],
            [
              109.1807077,
              11.7813645
            ],
            [
              109.1809737,
              11.7814135
            ],
            [
              109.1811018,
              11.7814543
            ],
            [
              109.1812269,
              11.7815255
            ],
            [
              109.1812865,
              11.7815741
            ],
            [
              109.1813811,
              11.781674
            ],
            [
              109.1814761,
              11.7817509
            ],
            [
              109.1816033,
              11.7818162
            ],
            [
              109.1816717,
              11.781838
            ],
            [
              109.1830288,
              11.782099
            ],
            [
              109.1832529,
              11.7821726
            ],
            [
              109.1834663,
              11.7822721
            ],
            [
              109.1836781,
              11.7824046
            ],
            [
              109.1838816,
              11.7825727
            ],
            [
              109.1840599,
              11.7827662
            ],
            [
              109.1846909,
              11.7835313
            ],
            [
              109.1847551,
              11.7835925
            ],
            [
              109.1848976,
              11.7836988
            ],
            [
              109.1850556,
              11.7837814
            ],
            [
              109.1851503,
              11.7838169
            ],
            [
              109.1852479,
              11.7838438
            ],
            [
              109.1853477,
              11.783862
            ],
            [
              109.1854487,
              11.7838712
            ],
            [
              109.1855501,
              11.7838714
            ],
            [
              109.1856511,
              11.7838626
            ],
            [
              109.1857648,
              11.7839054
            ],
            [
              109.1858747,
              11.7839566
            ],
            [
              109.1859802,
              11.7840159
            ],
            [
              109.1860808,
              11.7840831
            ],
            [
              109.1861743,
              11.7841564
            ],
            [
              109.1863429,
              11.7843229
            ],
            [
              109.1864838,
              11.7845124
            ],
            [
              109.1866317,
              11.7846778
            ],
            [
              109.1867979,
              11.7848257
            ],
            [
              109.1869609,
              11.784942
            ],
            [
              109.1890498,
              11.7861484
            ],
            [
              109.1892384,
              11.7860623
            ],
            [
              109.1894929,
              11.7866618
            ],
            [
              109.1897634,
              11.7876039
            ],
            [
              109.1892464,
              11.7881178
            ],
            [
              109.1882048,
              11.7884754
            ],
            [
              109.1879383,
              11.7892038
            ],
            [
              109.1878692,
              11.7893925
            ],
            [
              109.1879517,
              11.7900852
            ],
            [
              109.1882126,
              11.7901849
            ],
            [
              109.1882392,
              11.7904189
            ],
            [
              109.1879827,
              11.7906969
            ],
            [
              109.1878968,
              11.7909694
            ],
            [
              109.1874316,
              11.7914906
            ],
            [
              109.187238,
              11.7915888
            ],
            [
              109.1871521,
              11.791562
            ],
            [
              109.1870973,
              11.7914908
            ],
            [
              109.1870266,
              11.7913819
            ],
            [
              109.1868467,
              11.791473
            ],
            [
              109.1867227,
              11.791641
            ],
            [
              109.1867127,
              11.7919034
            ],
            [
              109.1859788,
              11.794852
            ],
            [
              109.1855342,
              11.7977846
            ],
            [
              109.1854407,
              11.7986877
            ],
            [
              109.1853704,
              11.7988324
            ],
            [
              109.1852937,
              11.7992828
            ],
            [
              109.1853744,
              11.7995722
            ],
            [
              109.1852951,
              11.8009852
            ],
            [
              109.1852491,
              11.8036327
            ],
            [
              109.1851817,
              11.8039089
            ],
            [
              109.1851443,
              11.8044264
            ],
            [
              109.1852413,
              11.8048617
            ],
            [
              109.1852261,
              11.8052019
            ],
            [
              109.1851794,
              11.8054845
            ],
            [
              109.185185,
              11.8057889
            ],
            [
              109.1853156,
              11.805981
            ],
            [
              109.1853288,
              11.8065221
            ],
            [
              109.1853794,
              11.8070632
            ],
            [
              109.1855925,
              11.8074506
            ],
            [
              109.1858395,
              11.8080139
            ],
            [
              109.1861911,
              11.8087089
            ],
            [
              109.1869166,
              11.8098501
            ],
            [
              109.1873854,
              11.8103766
            ],
            [
              109.1878737,
              11.8108616
            ],
            [
              109.1882066,
              11.8107101
            ],
            [
              109.1885114,
              11.8106617
            ],
            [
              109.1889989,
              11.8102804
            ],
            [
              109.1890258,
              11.8103552
            ],
            [
              109.1889792,
              11.8104362
            ],
            [
              109.1887048,
              11.8106615
            ],
            [
              109.1887114,
              11.8107385
            ],
            [
              109.1886729,
              11.8108491
            ],
            [
              109.1884011,
              11.8110088
            ],
            [
              109.1882418,
              11.8109942
            ],
            [
              109.1878845,
              11.8111625
            ],
            [
              109.1879176,
              11.8113578
            ],
            [
              109.1879635,
              11.8115558
            ],
            [
              109.1885168,
              11.8117125
            ],
            [
              109.188966,
              11.81178
            ],
            [
              109.1892146,
              11.8117126
            ],
            [
              109.1894646,
              11.8117242
            ],
            [
              109.1895614,
              11.8113146
            ],
            [
              109.1897378,
              11.8111589
            ],
            [
              109.1900182,
              11.8111561
            ],
            [
              109.1901204,
              11.8113295
            ],
            [
              109.1903484,
              11.8114416
            ],
            [
              109.1905504,
              11.8114646
            ],
            [
              109.1908438,
              11.8114278
            ],
            [
              109.1910338,
              11.8112777
            ],
            [
              109.1910982,
              11.8111291
            ],
            [
              109.1910381,
              11.8108041
            ],
            [
              109.191081,
              11.8106876
            ],
            [
              109.1913256,
              11.8105636
            ],
            [
              109.1916523,
              11.8103662
            ],
            [
              109.1921035,
              11.8102023
            ],
            [
              109.1923958,
              11.8103094
            ],
            [
              109.1930616,
              11.8101666
            ],
            [
              109.1935501,
              11.8098791
            ],
            [
              109.1942325,
              11.8098314
            ],
            [
              109.194486,
              11.8099373
            ],
            [
              109.1948827,
              11.809849
            ],
            [
              109.1948444,
              11.8099835
            ],
            [
              109.1949363,
              11.8100129
            ],
            [
              109.1950744,
              11.8098585
            ],
            [
              109.1951751,
              11.8099764
            ],
            [
              109.195178,
              11.8100269
            ],
            [
              109.1953436,
              11.8101698
            ],
            [
              109.1953576,
              11.810282
            ],
            [
              109.1952398,
              11.8103529
            ],
            [
              109.1949855,
              11.8104333
            ],
            [
              109.1949895,
              11.8105926
            ],
            [
              109.1950494,
              11.8106437
            ],
            [
              109.1950326,
              11.8108606
            ],
            [
              109.1949795,
              11.8114695
            ],
            [
              109.1939843,
              11.81143
            ],
            [
              109.19267,
              11.8117555
            ],
            [
              109.1924554,
              11.8120968
            ],
            [
              109.1917258,
              11.8126219
            ],
            [
              109.1914826,
              11.8127791
            ],
            [
              109.191227,
              11.812916
            ],
            [
              109.1910479,
              11.8129899
            ],
            [
              109.190858,
              11.8130307
            ],
            [
              109.190761,
              11.8130381
            ],
            [
              109.1905684,
              11.8130269
            ],
            [
              109.1903824,
              11.8129822
            ],
            [
              109.1902933,
              11.8129477
            ],
            [
              109.1902077,
              11.8129055
            ],
            [
              109.1895329,
              11.8124984
            ],
            [
              109.1894402,
              11.8124633
            ],
            [
              109.1893911,
              11.8124553
            ],
            [
              109.1892906,
              11.8124594
            ],
            [
              109.1892411,
              11.8124717
            ],
            [
              109.1891938,
              11.8124907
            ],
            [
              109.1889227,
              11.8126437
            ],
            [
              109.1888686,
              11.8126644
            ],
            [
              109.1887545,
              11.8126859
            ],
            [
              109.1886964,
              11.8126862
            ],
            [
              109.18859,
              11.8126686
            ],
            [
              109.1885019,
              11.812623
            ],
            [
              109.1884652,
              11.8125899
            ],
            [
              109.1884348,
              11.812551
            ],
            [
              109.1883994,
              11.812473
            ],
            [
              109.1883861,
              11.8123698
            ],
            [
              109.1883624,
              11.812341
            ],
            [
              109.1883266,
              11.8123333
            ],
            [
              109.1883087,
              11.8123384
            ],
            [
              109.1880841,
              11.812492
            ],
            [
              109.1878451,
              11.8126179
            ],
            [
              109.1877216,
              11.8126701
            ],
            [
              109.1874665,
              11.8127532
            ],
            [
              109.1871174,
              11.8128235
            ],
            [
              109.1864144,
              11.812939
            ],
            [
              109.1857487,
              11.8130171
            ],
            [
              109.1851222,
              11.813063
            ],
            [
              109.1834271,
              11.8121599
            ],
            [
              109.1756649,
              11.8112266
            ],
            [
              109.1652149,
              11.8099703
            ],
            [
              109.1501945,
              11.8064942
            ],
            [
              109.1279885,
              11.8043964
            ],
            [
              109.1171795,
              11.8053656
            ],
            [
              109.1123712,
              11.8057925
            ],
            [
              109.1122443,
              11.8058066
            ],
            [
              109.1119939,
              11.8058556
            ],
            [
              109.1118711,
              11.8058903
            ],
            [
              109.111636,
              11.805978
            ],
            [
              109.1115224,
              11.8060312
            ],
            [
              109.1113052,
              11.8061555
            ],
            [
              109.1115493,
              11.8064206
            ],
            [
              109.1111684,
              11.8067383
            ],
            [
              109.110927,
              11.8064863
            ],
            [
              109.1105354,
              11.8067935
            ],
            [
              109.1098782,
              11.8071925
            ],
            [
              109.109787,
              11.8071085
            ],
            [
              109.1096798,
              11.8072214
            ],
            [
              109.1095644,
              11.8073002
            ],
            [
              109.1088483,
              11.8066323
            ],
            [
              109.1085481,
              11.8068347
            ],
            [
              109.1085107,
              11.8068496
            ],
            [
              109.1084312,
              11.8068619
            ],
            [
              109.108391,
              11.8068591
            ],
            [
              109.1083154,
              11.8068364
            ],
            [
              109.108281,
              11.8068171
            ],
            [
              109.1081271,
              11.8066851
            ],
            [
              109.1080746,
              11.8066653
            ],
            [
              109.1080195,
              11.8066648
            ],
            [
              109.107648,
              11.8067121
            ],
            [
              109.1076003,
              11.806781
            ],
            [
              109.1075199,
              11.8069218
            ],
            [
              109.10647,
              11.8092591
            ],
            [
              109.1063204,
              11.8095206
            ],
            [
              109.1062298,
              11.8096331
            ],
            [
              109.1061694,
              11.8096906
            ],
            [
              109.0922856,
              11.81656
            ],
            [
              109.0911698,
              11.8193219
            ],
            [
              109.0893513,
              11.8257329
            ],
            [
              109.0755165,
              11.8344854
            ],
            [
              109.0580982,
              11.8607204
            ],
            [
              109.0580555,
              11.8604862
            ],
            [
              109.057948,
              11.8600222
            ],
            [
              109.0578806,
              11.8597836
            ],
            [
              109.0578055,
              11.8595473
            ],
            [
              109.0573606,
              11.8583028
            ],
            [
              109.0573118,
              11.85811
            ],
            [
              109.0572989,
              11.8580114
            ],
            [
              109.0572958,
              11.8578243
            ],
            [
              109.0573046,
              11.8577311
            ],
            [
              109.0574175,
              11.8571296
            ],
            [
              109.0574516,
              11.8568728
            ],
            [
              109.0574759,
              11.8566149
            ],
            [
              109.0574951,
              11.8561307
            ],
            [
              109.0574799,
              11.8556463
            ],
            [
              109.0572955,
              11.8553109
            ],
            [
              109.0571401,
              11.8549617
            ],
            [
              109.0570085,
              11.8545805
            ],
            [
              109.0569531,
              11.8543756
            ],
            [
              109.0569073,
              11.8541684
            ],
            [
              109.0567358,
              11.8539458
            ],
            [
              109.0565569,
              11.8537287
            ],
            [
              109.0563061,
              11.8534471
            ],
            [
              109.0562471,
              11.8533722
            ],
            [
              109.0561478,
              11.8532099
            ],
            [
              109.0560772,
              11.8530409
            ],
            [
              109.0560341,
              11.8528698
            ],
            [
              109.0560222,
              11.8527824
            ],
            [
              109.0559835,
              11.8522178
            ],
            [
              109.0559486,
              11.8520152
            ],
            [
              109.0558933,
              11.8518405
            ],
            [
              109.0558268,
              11.8516941
            ],
            [
              109.055742,
              11.8514687
            ],
            [
              109.0556659,
              11.8512403
            ],
            [
              109.0555987,
              11.8510093
            ],
            [
              109.0555404,
              11.850776
            ],
            [
              109.0554644,
              11.8503898
            ],
            [
              109.0554375,
              11.8500848
            ],
            [
              109.0554477,
              11.849624
            ],
            [
              109.0554415,
              11.8494702
            ],
            [
              109.0554069,
              11.8491643
            ],
            [
              109.0553464,
              11.8488772
            ],
            [
              109.0552645,
              11.8486105
            ],
            [
              109.0550941,
              11.8481912
            ],
            [
              109.0550367,
              11.8479825
            ],
            [
              109.0550016,
              11.8478159
            ],
            [
              109.0549681,
              11.8477607
            ],
            [
              109.0548839,
              11.8476597
            ],
            [
              109.0548316,
              11.8475473
            ],
            [
              109.0548173,
              11.8474906
            ],
            [
              109.0547997,
              11.8473159
            ],
            [
              109.0547621,
              11.8470846
            ],
            [
              109.0546996,
              11.8468519
            ],
            [
              109.0546584,
              11.8467351
            ],
            [
              109.0545577,
              11.8465086
            ],
            [
              109.0542358,
              11.8459626
            ],
            [
              109.0542234,
              11.8456843
            ],
            [
              109.0542358,
              11.845406
            ],
            [
              109.0542704,
              11.8451443
            ],
            [
              109.054327,
              11.8448863
            ],
            [
              109.0474498,
              11.8456895
            ],
            [
              109.0456206,
              11.8458549
            ],
            [
              109.0401113,
              11.8400875
            ],
            [
              109.0394595,
              11.8406414
            ],
            [
              109.0393285,
              11.840772
            ],
            [
              109.0390839,
              11.8410489
            ],
            [
              109.0389708,
              11.8411947
            ],
            [
              109.0387339,
              11.8415303
            ],
            [
              109.0385824,
              11.8416994
            ],
            [
              109.0384855,
              11.8417893
            ],
            [
              109.0381716,
              11.8420328
            ],
            [
              109.0380749,
              11.842123
            ],
            [
              109.0378484,
              11.8423677
            ],
            [
              109.0377715,
              11.8424332
            ],
            [
              109.0375552,
              11.8425837
            ],
            [
              109.0374546,
              11.8426861
            ],
            [
              109.0373423,
              11.8428472
            ],
            [
              109.0372425,
              11.8429499
            ],
            [
              109.0371233,
              11.8430303
            ],
            [
              109.0370547,
              11.8430624
            ],
            [
              109.0369829,
              11.843087
            ],
            [
              109.0367221,
              11.8431464
            ],
            [
              109.0366326,
              11.8431802
            ],
            [
              109.0364805,
              11.8432611
            ],
            [
              109.0363582,
              11.8433532
            ],
            [
              109.0361181,
              11.8435828
            ],
            [
              109.0359277,
              11.8437278
            ],
            [
              109.035737,
              11.8438435
            ],
            [
              109.0353082,
              11.8440809
            ],
            [
              109.0349836,
              11.8442753
            ],
            [
              109.0343487,
              11.844686
            ],
            [
              109.0340388,
              11.844902
            ],
            [
              109.0334477,
              11.8453448
            ],
            [
              109.03316,
              11.8455759
            ],
            [
              109.0326011,
              11.8460571
            ],
            [
              109.0287065,
              11.8443665
            ],
            [
              109.0135574,
              11.8310517
            ],
            [
              109.0173823,
              11.8242837
            ],
            [
              109.0186536,
              11.8227322
            ],
            [
              109.0179348,
              11.8220509
            ],
            [
              109.017794,
              11.8219577
            ],
            [
              109.0176518,
              11.8219026
            ],
            [
              109.0174557,
              11.8218742
            ],
            [
              109.0173568,
              11.8218671
            ],
            [
              109.0170898,
              11.8218717
            ],
            [
              109.0169571,
              11.8218868
            ],
            [
              109.0163738,
              11.8220023
            ],
            [
              109.0163016,
              11.8220091
            ],
            [
              109.0161571,
              11.8219985
            ],
            [
              109.0160868,
              11.8219813
            ],
            [
              109.0159694,
              11.8219326
            ],
            [
              109.0159151,
              11.8219
            ],
            [
              109.0157935,
              11.8217592
            ],
            [
              109.0156679,
              11.8215777
            ],
            [
              109.0156052,
              11.8214664
            ],
            [
              109.0154672,
              11.8211701
            ],
            [
              109.0153867,
              11.8210388
            ],
            [
              109.0150622,
              11.8207264
            ],
            [
              109.0146115,
              11.8202171
            ],
            [
              109.0142454,
              11.8199913
            ],
            [
              109.0133134,
              11.8190173
            ],
            [
              109.0131589,
              11.8188915
            ],
            [
              109.012985,
              11.818793
            ],
            [
              109.0128922,
              11.8187548
            ],
            [
              109.0127062,
              11.8187035
            ],
            [
              109.012498,
              11.8186672
            ],
            [
              109.0123936,
              11.8186217
            ],
            [
              109.0123022,
              11.8185553
            ],
            [
              109.0119922,
              11.818294
            ],
            [
              109.0118301,
              11.818172
            ],
            [
              109.011476,
              11.8179357
            ],
            [
              109.0099616,
              11.8170927
            ],
            [
              109.0098524,
              11.8170189
            ],
            [
              109.0097491,
              11.8169374
            ],
            [
              109.0096521,
              11.8168488
            ],
            [
              109.009518,
              11.8167014
            ],
            [
              109.009353,
              11.8164759
            ],
            [
              109.0092404,
              11.8163605
            ],
            [
              109.0091667,
              11.8163029
            ],
            [
              109.0090875,
              11.8162528
            ],
            [
              109.0086043,
              11.816053
            ],
            [
              109.0085283,
              11.8160061
            ],
            [
              109.0084873,
              11.815967
            ],
            [
              109.0084532,
              11.815922
            ],
            [
              109.0082762,
              11.8156332
            ],
            [
              109.008083,
              11.8156263
            ],
            [
              109.0078811,
              11.8156488
            ],
            [
              109.007501,
              11.8157488
            ],
            [
              109.0073801,
              11.8157725
            ],
            [
              109.0072548,
              11.8157781
            ],
            [
              109.0071282,
              11.8157645
            ],
            [
              109.0070761,
              11.8157156
            ],
            [
              109.0069889,
              11.8156075
            ],
            [
              109.0069539,
              11.8155496
            ],
            [
              109.0068355,
              11.8153029
            ],
            [
              109.0067793,
              11.8152162
            ],
            [
              109.0066454,
              11.8150583
            ],
            [
              109.0065673,
              11.8149872
            ],
            [
              109.0064832,
              11.8149229
            ],
            [
              109.0063937,
              11.8148661
            ],
            [
              109.0062996,
              11.814817
            ],
            [
              109.0062015,
              11.8147761
            ],
            [
              109.0055325,
              11.8145379
            ],
            [
              109.0054853,
              11.8145161
            ],
            [
              109.0054022,
              11.8144597
            ],
            [
              109.0053099,
              11.8143462
            ],
            [
              109.0052409,
              11.81422
            ],
            [
              109.0051965,
              11.8140856
            ],
            [
              109.005174,
              11.8139358
            ],
            [
              109.0051553,
              11.8138572
            ],
            [
              109.0051276,
              11.8137811
            ],
            [
              109.0050912,
              11.8137086
            ],
            [
              109.0050079,
              11.8135924
            ],
            [
              109.004918,
              11.8135067
            ],
            [
              109.0045801,
              11.8133859
            ],
            [
              109.0044379,
              11.8132888
            ],
            [
              109.0041697,
              11.8130761
            ],
            [
              109.0038398,
              11.8128451
            ],
            [
              109.0028393,
              11.8118264
            ],
            [
              109.0027779,
              11.8116178
            ],
            [
              109.0027374,
              11.8115166
            ],
            [
              109.0026525,
              11.811348
            ],
            [
              109.0026033,
              11.8112672
            ],
            [
              109.0023911,
              11.811117
            ],
            [
              109.0022895,
              11.8110362
            ],
            [
              109.0020705,
              11.8108393
            ],
            [
              109.0019676,
              11.8107343
            ],
            [
              109.0018105,
              11.8106052
            ],
            [
              109.0014848,
              11.8103614
            ],
            [
              109.0011609,
              11.8101474
            ],
            [
              109.000825,
              11.8099519
            ],
            [
              108.9992387,
              11.8091638
            ],
            [
              108.9990598,
              11.8090585
            ],
            [
              108.998977,
              11.8089962
            ],
            [
              108.9988246,
              11.8088517
            ],
            [
              108.9987564,
              11.80877
            ],
            [
              108.9986949,
              11.8086834
            ],
            [
              108.9985401,
              11.8084112
            ],
            [
              108.9984192,
              11.8082481
            ],
            [
              108.998352,
              11.8081718
            ],
            [
              108.9981784,
              11.8080085
            ],
            [
              108.9980838,
              11.8079355
            ],
            [
              108.9978934,
              11.8078174
            ],
            [
              108.9977163,
              11.8076809
            ],
            [
              108.9975242,
              11.8074948
            ],
            [
              108.9973569,
              11.807287
            ],
            [
              108.9969358,
              11.8069195
            ],
            [
              108.9968374,
              11.8066992
            ],
            [
              108.9967185,
              11.8064889
            ],
            [
              108.9966248,
              11.8063568
            ],
            [
              108.9965111,
              11.8062407
            ],
            [
              108.9963705,
              11.8061375
            ],
            [
              108.9962035,
              11.8060544
            ],
            [
              108.996115,
              11.8060242
            ],
            [
              108.9957583,
              11.8059796
            ],
            [
              108.9956027,
              11.8059496
            ],
            [
              108.9954653,
              11.8058975
            ],
            [
              108.9953479,
              11.8058299
            ],
            [
              108.9952222,
              11.8057149
            ],
            [
              108.9951655,
              11.8056514
            ],
            [
              108.9950999,
              11.8055654
            ],
            [
              108.9950421,
              11.8054742
            ],
            [
              108.9948034,
              11.8052024
            ],
            [
              108.9947522,
              11.805082
            ],
            [
              108.9947176,
              11.8050261
            ],
            [
              108.9946273,
              11.8049217
            ],
            [
              108.9945111,
              11.8048349
            ],
            [
              108.9941524,
              11.8046684
            ],
            [
              108.9938883,
              11.8045078
            ],
            [
              108.9937505,
              11.8044101
            ],
            [
              108.9935817,
              11.8042736
            ],
            [
              108.9935235,
              11.8042013
            ],
            [
              108.9934688,
              11.8040835
            ],
            [
              108.9934243,
              11.8040135
            ],
            [
              108.9933631,
              11.8039566
            ],
            [
              108.9932075,
              11.8038503
            ],
            [
              108.993144,
              11.8037596
            ],
            [
              108.9930066,
              11.8035321
            ],
            [
              108.9929368,
              11.8033937
            ],
            [
              108.9927853,
              11.8030281
            ],
            [
              108.9926673,
              11.8028159
            ],
            [
              108.9925979,
              11.802715
            ],
            [
              108.9923075,
              11.8023621
            ],
            [
              108.9921802,
              11.802193
            ],
            [
              108.992039,
              11.8019908
            ],
            [
              108.9919057,
              11.8017835
            ],
            [
              108.9917806,
              11.8015714
            ],
            [
              108.9917886,
              11.8011697
            ],
            [
              108.9918078,
              11.8008128
            ],
            [
              108.9918101,
              11.8006341
            ],
            [
              108.9918052,
              11.800385
            ],
            [
              108.9917909,
              11.8001364
            ],
            [
              108.9917672,
              11.7998884
            ],
            [
              108.9912307,
              11.7984444
            ],
            [
              108.9905977,
              11.7972314
            ],
            [
              108.9901417,
              11.7959448
            ],
            [
              108.9898252,
              11.7944378
            ],
            [
              108.9894892,
              11.7939381
            ],
            [
              108.9891761,
              11.7934243
            ],
            [
              108.9888901,
              11.7929037
            ],
            [
              108.9887559,
              11.7926389
            ],
            [
              108.9885056,
              11.792101
            ],
            [
              108.9883876,
              11.7908853
            ],
            [
              108.9888596,
              11.7886247
            ],
            [
              108.9900184,
              11.7872173
            ],
            [
              108.9900769,
              11.7871365
            ],
            [
              108.990179,
              11.7869656
            ],
            [
              108.9902222,
              11.786876
            ],
            [
              108.9903027,
              11.7866546
            ],
            [
              108.9903309,
              11.7865403
            ],
            [
              108.990351,
              11.7864244
            ],
            [
              108.9903617,
              11.7862248
            ]
          ]
        ]
      },
      "id": "relation/17606330"
    }
  ]
}